$$SOE
2460728.500000000, A.D. 2025-Feb-22 00:00:00.0000, 2.362898973852178E+08, -3.019941357105476E+08, 1.438767704581246E+08,
2460735.500000000, A.D. 2025-Mar-01 00:00:00.0000, 2.424374613812229E+08, -2.945728491540400E+08, 1.413641119398885E+08,
2460742.500000000, A.D. 2025-Mar-08 00:00:00.0000, 2.484102598492013E+08, -2.869392983839433E+08, 1.387495559906060E+08,
2460749.500000000, A.D. 2025-Mar-15 00:00:00.0000, 2.542002944708301E+08, -2.790947150063685E+08, 1.360329227506066E+08,
2460756.500000000, A.D. 2025-Mar-22 00:00:00.0000, 2.597993273772766E+08, -2.710404969950782E+08, 1.332140812324505E+08,
2460763.500000000, A.D. 2025-Mar-29 00:00:00.0000, 2.651988708782512E+08, -2.627782264074278E+08, 1.302929549552387E+08,
2460770.500000000, A.D. 2025-Apr-05 00:00:00.0000, 2.703901788828968E+08, -2.543096876220821E+08, 1.272695280712218E+08,
2460777.500000000, A.D. 2025-Apr-12 00:00:00.0000, 2.753642381549665E+08, -2.456368861138629E+08, 1.241438522247982E+08,
2460784.500000000, A.D. 2025-Apr-19 00:00:00.0000, 2.801117592974557E+08, -2.367620687749230E+08, 1.209160541484674E+08,
2460791.500000000, A.D. 2025-Apr-26 00:00:00.0000, 2.846231678375402E+08, -2.276877461214558E+08, 1.175863440184727E+08,
2460798.500000000, A.D. 2025-May-03 00:00:00.0000, 2.888885956444780E+08, -2.184167165114764E+08, 1.141550246308115E+08,
2460805.500000000, A.D. 2025-May-10 00:00:00.0000, 2.928978728508656E+08, -2.089520925182496E+08, 1.106225014706883E+08,
2460812.500000000, A.D. 2025-May-17 00:00:00.0000, 2.966405204817845E+08, -1.992973296614783E+08, 1.069892937488329E+08,
2460819.500000000, A.D. 2025-May-24 00:00:00.0000, 3.001057441635646E+08, -1.894562577177529E+08, 1.032560464691691E+08,
2460826.500000000, A.D. 2025-May-31 00:00:00.0000, 3.032824295640177E+08, -1.794331144702694E+08, 9.942354360548188E+07,
2460833.500000000, A.D. 2025-Jun-07 00:00:00.0000, 3.061591394403724E+08, -1.692325808689394E+08, 9.549272262034909E+07,
2460840.500000000, A.D. 2025-Jun-14 00:00:00.0000, 3.087241102533586E+08, -1.588598184488273E+08, 9.146469059197310E+07,
2460847.500000000, A.D. 2025-Jun-21 00:00:00.0000, 3.109652499348386E+08, -1.483205124566430E+08, 8.734074167308788E+07,
2460854.500000000, A.D. 2025-Jun-28 00:00:00.0000, 3.128701403645858E+08, -1.376209190878597E+08, 8.312237584163088E+07,
2460861.500000000, A.D. 2025-Jul-05 00:00:00.0000, 3.144260435336588E+08, -1.267679148301511E+08, 7.881131936060521E+07,
2460868.500000000, A.D. 2025-Jul-12 00:00:00.0000, 3.156199107713450E+08, -1.157690488467057E+08, 7.440954708936061E+07,
2460875.500000000, A.D. 2025-Jul-19 00:00:00.0000, 3.164383958772495E+08, -1.046325990672037E+08, 6.991930667566326E+07,
2460882.500000000, A.D. 2025-Jul-26 00:00:00.0000, 3.168678731156135E+08, -9.336763209068392E+07, 6.534314469165955E+07,
2460889.500000000, A.D. 2025-Aug-02 00:00:00.0000, 3.168944609869508E+08, -8.198406687028313E+07, 6.068393478403307E+07,
2460896.500000000, A.D. 2025-Aug-09 00:00:00.0000, 3.165040527567334E+08, -7.049274211280003E+07, 5.594490788738608E+07,
2460903.500000000, A.D. 2025-Aug-16 00:00:00.0000, 3.156823548838007E+08, -5.890548727740739E+07, 5.112968450751980E+07,
2460910.500000000, A.D. 2025-Aug-23 00:00:00.0000, 3.144149348167924E+08, -4.723519685126656E+07, 4.624230902243307E+07,
2460917.500000000, A.D. 2025-Aug-30 00:00:00.0000, 3.126872797740145E+08, -3.549590671853134E+07, 4.128728594573294E+07,
2460924.500000000, A.D. 2025-Sep-06 00:00:00.0000, 3.104848664930856E+08, -2.370287095545036E+07, 3.626961821464944E+07,
2460931.500000000, A.D. 2025-Sep-13 00:00:00.0000, 3.077932417899212E+08, -1.187264064292688E+07, 3.119484721722050E+07,
2460938.500000000, A.D. 2025-Sep-20 00:00:00.0000, 3.045981187761159E+08, -2.314517493874766E+04, 2.606909377412150E+07,
2460945.500000000, A.D. 2025-Sep-27 00:00:00.0000, 3.008854914045247E+08, 1.182622854823082E+07, 2.089909974893311E+07,
2460952.500000000, A.D. 2025-Oct-04 00:00:00.0000, 2.966417669329496E+08, 2.365456146178499E+07, 1.569226987750205E+07,
2460959.500000000, A.D. 2025-Oct-11 00:00:00.0000, 2.918539174656388E+08, 3.543933358471511E+07, 1.045671295394674E+07,
2460966.500000000, A.D. 2025-Oct-18 00:00:00.0000, 2.865096522325364E+08, 4.715636370112325E+07, 5.201281299307030E+06,
2460973.500000000, A.D. 2025-Oct-25 00:00:00.0000, 2.805976118622806E+08, 5.877976081151544E+07, -6.439275487067178E+04,
2460980.500000000, A.D. 2025-Nov-01 00:00:00.0000, 2.741075854118318E+08, 7.028189123918624E+07, -5.329864880753323E+06,
2460987.500000000, A.D. 2025-Nov-08 00:00:00.0000, 2.670307503485908E+08, 8.163336576969190E+07, -1.058385305612738E+07,
2460994.500000000, A.D. 2025-Nov-15 00:00:00.0000, 2.593599350325961E+08, 9.280305168080714E+07, -1.581422023669898E+07,
2461001.500000000, A.D. 2025-Nov-22 00:00:00.0000, 2.510899025150397E+08, 1.037581152256590E+08, -2.100796774984492E+07,
2461008.500000000, A.D. 2025-Nov-29 00:00:00.0000, 2.422176526767281E+08, 1.144641013405800E+08, -2.615124186260370E+07,
2461015.500000000, A.D. 2025-Dec-06 00:00:00.0000, 2.327427361527550E+08, 1.248850561949154E+08, -3.122935604256797E+07,
2461022.500000000, A.D. 2025-Dec-13 00:00:00.0000, 2.226675745793744E+08, 1.349836947802562E+08, -3.622683201028943E+07,
2461029.500000000, A.D. 2025-Dec-20 00:00:00.0000, 2.119977829268081E+08, 1.447216195419647E+08, -4.112746253075238E+07,
2461036.500000000, A.D. 2025-Dec-27 00:00:00.0000, 2.007424831952962E+08, 1.540595966083053E+08, -4.591439808305185E+07,
2461043.500000000, A.D. 2026-Jan-03 00:00:00.0000, 1.889145965214154E+08, 1.629578914257106E+08, -5.057025929746060E+07,
2461050.500000000, A.D. 2026-Jan-10 00:00:00.0000, 1.765311006716277E+08, 1.713766634261159E+08, -5.507727647221658E+07,
2461057.500000000, A.D. 2026-Jan-17 00:00:00.0000, 1.636132387871255E+08, 1.792764172518348E+08, -5.941745645142294E+07,
2461064.500000000, A.D. 2026-Jan-24 00:00:00.0000, 1.501866644854088E+08, 1.866185049866793E+08, -6.357277586690171E+07,
2461071.500000000, A.D. 2026-Jan-31 00:00:00.0000, 1.362815086226180E+08, 1.933656702568469E+08, -6.752539826659751E+07,
2461078.500000000, A.D. 2026-Feb-07 00:00:00.0000, 1.219323543639341E+08, 1.994826213179975E+08, -7.125791103354822E+07,
2461085.500000000, A.D. 2026-Feb-14 00:00:00.0000, 1.071781098876665E+08, 2.049366167487752E+08, -7.475357635171440E+07,
2461092.500000000, A.D. 2026-Feb-21 00:00:00.0000, 9.206177188148625E+07, 2.096980449406564E+08, -7.799658888886166E+07,
2461099.500000000, A.D. 2026-Feb-28 00:00:00.0000, 7.663007631729934E+07, 2.137409769988150E+08, -8.097233139880879E+07,
2461106.500000000, A.D. 2026-Mar-07 00:00:00.0000, 6.093303761893322E+07, 2.170436686483662E+08, -8.366761873491928E+07,
2461113.500000000, A.D. 2026-Mar-14 00:00:00.0000, 4.502338821263091E+07, 2.195889870140268E+08, -8.607092099360391E+07,
2461120.500000000, A.D. 2026-Mar-21 00:00:00.0000, 2.895593546065170E+07, 2.213647456049506E+08, -8.817255641811228E+07,
2461127.500000000, A.D. 2026-Mar-28 00:00:00.0000, 1.278685447767466E+07, 2.223639327410008E+08, -8.996484557806030E+07,
2461134.500000000, A.D. 2026-Apr-04 00:00:00.0000, -3.427059177917939E+06, 2.225848218057288E+08, -9.144222038280840E+07,
2461141.500000000, A.D. 2026-Apr-11 00:00:00.0000, -1.962914960341534E+07, 2.220309583653775E+08, -9.260128378770152E+07,
2461148.500000000, A.D. 2026-Apr-18 00:00:00.0000, -3.576364565768897E+07, 2.207110259549834E+08, -9.344081858713573E+07,
2461155.500000000, A.D. 2026-Apr-25 00:00:00.0000, -5.177636478507777E+07, 2.186385985415584E+08, -9.396174632015765E+07,
2461162.500000000, A.D. 2026-May-02 00:00:00.0000, -6.761535243569380E+07, 2.158317930454466E+08, -9.416703979290017E+07,
2461169.500000000, A.D. 2026-May-09 00:00:00.0000, -8.323143841964158E+07, 2.123128394669146E+08, -9.406159483923830E+07,
2461176.500000000, A.D. 2026-May-16 00:00:00.0000, -9.857869672892305E+07, 2.081075890840064E+08, -9.365206853405139E+07,
2461183.500000000, A.D. 2026-May-23 00:00:00.0000, -1.136148014755926E+08, 2.032449832112651E+08, -9.294669195311984E+07,
2461190.500000000, A.D. 2026-May-30 00:00:00.0000, -1.283012793233038E+08, 1.977565039619882E+08, -9.195506579217619E+07,
2461197.500000000, A.D. 2026-Jun-06 00:00:00.0000, -1.426036619986300E+08, 1.916756232465464E+08, -9.068794736839482E+07,
2461204.500000000, A.D. 2026-Jun-13 00:00:00.0000, -1.564915425757539E+08, 1.850372671230280E+08, -8.915703687601289E+07,
2461211.500000000, A.D. 2026-Jun-20 00:00:00.0000, -1.699385464421356E+08, 1.778773121943222E+08, -8.737476914384618E+07,
2461218.500000000, A.D. 2026-Jun-27 00:00:00.0000, -1.829222309531800E+08, 1.702321240862760E+08, -8.535411607257800E+07,
2461225.500000000, A.D. 2026-Jul-04 00:00:00.0000, -1.954239269708885E+08, 1.621381442284630E+08, -8.310840380190521E+07,
2461232.500000000, A.D. 2026-Jul-11 00:00:00.0000, -2.074285352508533E+08, 1.536315286997925E+08, -8.065114736177151E+07,
2461239.500000000, A.D. 2026-Jul-18 00:00:00.0000, -2.189242901358066E+08, 1.447478403828259E+08, -7.799590438533169E+07,
2461246.500000000, A.D. 2026-Jul-25 00:00:00.0000, -2.299025019260884E+08, 1.355217934694001E+08, -7.515614846779309E+07,
2461253.500000000, A.D. 2026-Aug-01 00:00:00.0000, -2.403572878189789E+08, 1.259870476472427E+08, -7.214516195711449E+07,
2461260.500000000, A.D. 2026-Aug-08 00:00:00.0000, -2.502852995498805E+08, 1.161760481383762E+08, -6.897594736105625E+07,
2461267.500000000, A.D. 2026-Aug-15 00:00:00.0000, -2.596854540659057E+08, 1.061199075110787E+08, -6.566115609533096E+07,
2461274.500000000, A.D. 2026-Aug-22 00:00:00.0000, -2.685586732203656E+08, 9.584832558756728E+07, -6.221303284582691E+07,
2461281.500000000, A.D. 2026-Aug-29 00:00:00.0000, -2.769076386347964E+08, 8.538954109752883E+07, -5.864337374269858E+07,
2461288.500000000, A.D. 2026-Sep-05 00:00:00.0000, -2.847365622547732E+08, 7.477030737817594E+07, -5.496349702663857E+07,
2461295.500000000, A.D. 2026-Sep-12 00:00:00.0000, -2.920509717807246E+08, 6.401589007404415E+07, -5.118422450239775E+07,
$$EOE